ASTROCAST-0401          
1 55110U 23001DF  26068.71172895  .00009750  00000+0  37868-3 0  9995
2 55110  97.5547 160.5206 0008142 188.4231 171.6872 15.26258462176022
STARLINK-32521          
1 62117U 24222D   26068.51871509  .00023048  00000+0  84429-3 0  9993
2 62117  43.0001 133.5044 0001680 271.2024  88.8635 15.27585680 72767
